OBJECT_NAME,OBJECT_ID,EPOCH,MEAN_MOTION,ECCENTRICITY,INCLINATION,RA_OF_ASC_NODE,ARG_OF_PERICENTER,MEAN_ANOMALY,EPHEMERIS_TYPE,CLASSIFICATION_TYPE,NORAD_CAT_ID,ELEMENT_SET_NO,REV_AT_EPOCH,BSTAR,MEAN_MOTION_DOT,MEAN_MOTION_DDOT
IRIDIUM 113,2017-039A,2026-07-14T19:10:27.137280,14.34217283,.0002134,86.3991,310.6383,91.6695,268.4745,0,U,42803,999,47514,-.37286E-6,.19E-6,0
NORSAT 2,2017-042D,2026-07-14T10:33:42.260544,15.22418888,.00082649,97.4048,8.4596,321.0174,39.0466,0,U,42828,999,49188,.25132298E-3,.5744E-4,0
TECHNOSAT,2017-042E,2026-07-14T09:00:24.550560,15.05108329,.00175108,97.4314,352.0048,6.1550,353.9889,0,U,42829,999,49079,.13546681E-3,.1874E-4,0
FLYING LAPTOP,2017-042G,2026-07-14T20:19:25.043232,15.01312785,.0019713,97.4797,350.3387,33.6563,326.5909,0,U,42831,999,49060,.18652E-3,.2352E-4,0
WNISAT 1R,2017-042L,2026-07-14T17:49:10.674624,15.01858009,.0010926,97.4821,350.8805,66.2150,294.0220,0,U,42835,999,49064,.40499E-4,.471E-5,0
LEMUR-2-GREENBERG,2017-042N,2026-07-14T11:01:08.367168,15.32137916,.00071946,97.3823,15.9753,263.1794,96.8630,0,U,42837,999,49256,.32148482E-3,.9907E-4,0
LEMUR-2-FURIAUS,2017-042R,2026-07-14T19:09:35.942688,15.31122578,.0006009,97.3768,14.2060,332.4453,27.6469,0,U,42840,999,49243,.32525E-3,.9709E-4,0
CORVUS BC2,2017-042X,2026-07-14T10:18:37.146240,15.06454543,.00135237,97.4090,355.7268,25.6312,334.5584,0,U,42846,999,49116,.91874492E-4,.1298E-4,0
CORVUS BC1,2017-042Y,2026-07-14T10:06:32.203584,15.06617331,.00117341,97.4119,356.5502,2.9790,357.1506,0,U,42847,999,49119,.88365851E-4,.1251E-4,0
VRSS-2,2017-060A,2026-07-14T21:12:58.266144,14.81238262,.0017541,97.6503,232.3619,14.7381,345.4340,0,U,42954,999,47255,.73541E-4,.524E-5,0
MOHAMMED VI-A,2017-070A,2026-07-14T20:23:26.457792,14.77102953,.0001212,97.9556,267.7983,94.0573,266.0775,0,U,43005,999,46806,.71883E-4,.457E-5,0
FENGYUN 3D,2017-072A,2026-07-14T21:56:41.752032,14.19744668,.0001526,99.0137,170.8400,14.4962,345.6257,0,U,43010,999,44892,.57073E-4,.75E-6,0
NOAA 20 (JPSS-1),2017-073A,2026-07-14T20:14:30.375168,14.19516397,.0001373,98.7772,135.0610,125.0813,235.0491,0,U,43013,999,44839,.23681E-4,.6E-7,0
MAKERSAT 0,2017-073D,2026-07-14T14:28:35.203872,15.32992920,.0105407,97.4584,78.3470,174.3522,185.8937,0,U,43016,999,47066,.3073E-3,.11617E-3,0
RADFXSAT (FOX-1B),2017-073E,2026-07-14T14:09:34.362720,15.13055354,.0148235,97.4666,62.2466,233.5986,125.1498,0,U,43017,999,46953,.1845E-3,.4198E-4,0
JILIN-1 04,2017-074A,2026-07-14T20:18:25.390080,15.43125411,.0005253,97.4882,306.2117,101.1400,259.0438,0,U,43022,999,47853,.19389E-3,.8494E-4,0
JILIN-1 05,2017-074B,2026-07-14T20:13:43.872096,15.34282192,.0006437,97.4885,302.3807,125.6174,234.5669,0,U,43023,999,47824,.14968E-3,.4888E-4,0
JILIN-1 06,2017-074C,2026-07-14T19:38:56.220000,15.33993289,.0008068,97.4811,299.3287,135.2297,224.9597,0,U,43024,999,47807,.10747E-3,.3455E-4,0
IRIDIUM 116,2017-083C,2026-07-14T20:14:23.077824,14.34217711,.0002443,86.3985,310.4404,98.6620,261.4852,0,U,43072,999,44813,.38542E-4,.128E-5,0
IRIDIUM 130,2017-083D,2026-07-14T19:28:43.413312,14.34217860,.000225,86.3993,310.7316,100.6404,259.5045,0,U,43073,999,44807,.40981E-4,.135E-5,0
LKW-2,2017-084A,2026-07-14T21:18:11.919744,15.26686628,.0003628,97.1180,234.3922,119.2206,240.9396,0,U,43080,999,47591,.11914E-3,.3059E-4,0
SUPERVIEW-1 03,2018-002A,2026-07-14T20:25:05.244096,15.40205668,.0046964,97.3136,280.6621,82.3159,278.3417,0,U,43099,999,47262,.27943E-3,.11586E-3,0
CARTOSAT-2F,2018-004A,2026-07-14T19:20:10.160160,15.19266037,.0002736,97.4780,255.1683,135.5647,224.5807,0,U,43111,999,47152,.34498E-4,.659E-5,0
LKW-3,2018-006A,2026-07-14T21:07:28.248384,15.35749037,.0002916,97.6626,357.5498,180.3945,179.7296,0,U,43146,999,47296,.25368E-3,.8737E-4,0
ASNARO-2,2018-007A,2026-07-14T20:34:33.574656,15.22422085,.0001875,97.3970,202.3523,93.3672,266.7779,0,U,43152,999,47162,.21292E-3,.4853E-4,0
JILIN-1 07,2018-008E,2026-07-14T20:44:40.507008,15.35160965,.0006776,97.1763,215.0618,329.5845,30.5005,0,U,43159,999,46924,.15104E-3,.5079E-4,0
JILIN-1 08,2018-008F,2026-07-14T19:39:14.352768,15.34007638,.0005353,97.1799,214.3027,354.2251,5.8930,0,U,43160,999,46918,.10809E-3,.3481E-4,0
S-NET D,2018-014G,2026-07-14T16:58:49.867104,15.16915277,.0006264,97.5336,100.3276,287.1743,72.8804,0,U,43186,999,46293,.13144E-3,.2523E-4,0
